{
    "links": {
        "self": "http://www.neowsapp.com/rest/v1/neo/3819559?api_key=iIulBulltgU6a56xZRHN4H3l9WmuAYTsLGpBGhQ2"
    },
    "id": "3819559",
    "neo_reference_id": "3819559",
    "name": "(2018 HU1)",
    "designation": "2018 HU1",
    "nasa_jpl_url": "http://ssd.jpl.nasa.gov/sbdb.cgi?sstr=3819559",
    "absolute_magnitude_h": 22.1,
    "estimated_diameter": {
        "kilometers": {
            "estimated_diameter_min": 0.1010543415,
            "estimated_diameter_max": 0.2259643771
        },
        "meters": {
            "estimated_diameter_min": 101.054341542,
            "estimated_diameter_max": 225.9643771094
        },
        "miles": {
            "estimated_diameter_min": 0.0627922373,
            "estimated_diameter_max": 0.140407711
        },
        "feet": {
            "estimated_diameter_min": 331.5431259047,
            "estimated_diameter_max": 741.3529669956
        }
    },
    "is_potentially_hazardous_asteroid": false,
    "close_approach_data": [
        {
            "close_approach_date": "1946-10-22",
            "close_approach_date_full": "1946-Oct-22 22:46",
            "epoch_date_close_approach": -731898840000,
            "relative_velocity": {
                "kilometers_per_second": "23.8884400923",
                "kilometers_per_hour": "85998.3843323826",
                "miles_per_hour": "53436.0516425296"
            },
            "miss_distance": {
                "astronomical": "0.2034051647",
                "lunar": "79.1246090683",
                "kilometers": "30428979.386119189",
                "miles": "18907691.0292512482"
            },
            "orbiting_body": "Earth"
        },
        {
            "close_approach_date": "1952-05-02",
            "close_approach_date_full": "1952-May-02 13:39",
            "epoch_date_close_approach": -557490060000,
            "relative_velocity": {
                "kilometers_per_second": "29.7921113873",
                "kilometers_per_hour": "107251.6009942343",
                "miles_per_hour": "66641.973962223"
            },
            "miss_distance": {
                "astronomical": "0.4104811919",
                "lunar": "159.6771836491",
                "kilometers": "61407111.983301253",
                "miles": "38156610.0409051714"
            },
            "orbiting_body": "Earth"
        },
        {
            "close_approach_date": "2018-04-01",
            "close_approach_date_full": "2018-Apr-01 23:35",
            "epoch_date_close_approach": 1522625700000,
            "relative_velocity": {
                "kilometers_per_second": "14.0052112598",
                "kilometers_per_hour": "50418.7605353621",
                "miles_per_hour": "31328.2570670976"
            },
            "miss_distance": {
                "astronomical": "0.1812090537",
                "lunar": "70.4903218893",
                "kilometers": "27108488.458235619",
                "miles": "16844433.6411807822"
            },
            "orbiting_body": "Earth"
        }
    ],
    "orbital_data": {
        "orbit_id": "7",
        "orbit_determination_date": "2018-05-17 06:34:42",
        "first_observation_date": "2018-04-21",
        "last_observation_date": "2018-05-17",
        "data_arc_in_days": 26,
        "observations_used": 60,
        "orbit_uncertainty": "7",
        "minimum_orbit_intersection": ".066189",
        "jupiter_tisserand_invariant": "3.637",
        "epoch_osculation": "2459000.5",
        "eccentricity": ".6516593685824768",
        "semi_major_axis": "1.905603735241472",
        "inclination": "9.28039248641282",
        "ascending_node_longitude": "64.61537500533683",
        "orbital_period": "960.8316933843571",
        "perihelion_distance": ".663799208365605",
        "perihelion_argument": "55.09852468192461",
        "aphelion_distance": "3.147408262117338",
        "perihelion_time": "2459125.875223350288",
        "mean_anomaly": "313.0249879173702",
        "mean_motion": ".3746754009872058",
        "equinox": "J2000",
        "orbit_class": {
            "orbit_class_type": "APO",
            "orbit_class_description": "Near-Earth asteroid orbits which cross the Earth’s orbit similar to that of 1862 Apollo",
            "orbit_class_range": "a (semi-major axis) > 1.0 AU; q (perihelion) < 1.017 AU"
        }
    },
    "is_sentry_object": false
}